[
  {
    "OBJECT_ID": "1961-015CD",
    "OBJECT_NAME": "THOR ABLESTAR DEB",
    "NORAD_CAT_ID": "252",
    "OBJECT_TYPE": "DEBRIS",
    "PERIOD": "104.658",
    "INCLINATION": "67.0804",
    "APOGEE": "1021.819",
    "PERIGEE": "935.089",
    "ECCENTRICITY": "0.0058947",
    "MEAN_MOTION": "13.75903467",
    "TLE_LINE1": "1   252U 61015CD  16238.75861287 -.00000041 +00000-0 +31944-4 0  9997",
    "TLE_LINE2": "2   252 067.0804 348.2900 0058947 305.3600 218.8988 13.75903467758281"
  },
  {
    "OBJECT_ID": "1961-015CE",
    "OBJECT_NAME": "THOR ABLESTAR DEB",
    "NORAD_CAT_ID": "253",
    "OBJECT_TYPE": "DEBRIS",
    "PERIOD": "98.772",
    "INCLINATION": "66.9301",
    "APOGEE": "718.267",
    "PERIGEE": "681.662",
    "ECCENTRICITY": "0.0025858",
    "MEAN_MOTION": "14.57900075",
    "TLE_LINE1": "1   253U 61015CE  16238.94811785 +.00000806 +00000-0 +19566-3 0  9990",
    "TLE_LINE2": "2   253 066.9301 169.3265 0025858 143.2251 217.0644 14.57900075853036"
  },
  {
    "OBJECT_ID": "1961-015CF",
    "OBJECT_NAME": "THOR ABLESTAR DEB",
    "NORAD_CAT_ID": "254",
    "OBJECT_TYPE": "DEBRIS",
    "PERIOD": "99.903",
    "INCLINATION": "66.7767",
    "APOGEE": "810.721",
    "PERIGEE": "697.117",
    "ECCENTRICITY": "0.0079643",
    "MEAN_MOTION": "14.41387555",
    "TLE_LINE1": "1 00254U 61015CF  16239.09478634  .00000277  00000-0  10939-3 0  9997",
    "TLE_LINE2": "2 00254  66.7767 119.9349 0079643 269.0484  90.1495 14.41387555856808"
  },
  {
    "OBJECT_ID": "1961-015CG",
    "OBJECT_NAME": "THOR ABLESTAR DEB",
    "NORAD_CAT_ID": "260",
    "OBJECT_TYPE": "DEBRIS",
    "PERIOD": "100.445",
    "INCLINATION": "66.7701",
    "APOGEE": "821.988",
    "PERIGEE": "737.381",
    "ECCENTRICITY": "0.0059101",
    "MEAN_MOTION": "14.33611871",
    "TLE_LINE1": "1 00260U 61015CG  16239.50473561  .00000302  00000-0  13720-3 0  9994",
    "TLE_LINE2": "2 00260  66.7701 281.5602 0059101 269.9815  89.4513 14.33611871842398"
  },
  {
    "OBJECT_ID": "1961-015CH",
    "OBJECT_NAME": "THOR ABLESTAR DEB",
    "NORAD_CAT_ID": "261",
    "OBJECT_TYPE": "DEBRIS",
    "PERIOD": "102.874",
    "INCLINATION": "66.6834",
    "APOGEE": "964.867",
    "PERIGEE": "824.383",
    "ECCENTRICITY": "0.0096582",
    "MEAN_MOTION": "13.99760828",
    "TLE_LINE1": "1 00261U 61015CH  16239.42168695 -.00000007  00000-0  47412-4 0  9994",
    "TLE_LINE2": "2 00261  66.6834 338.8530 0096582 268.5658  90.4359 13.99760828810657"
  },
  {
    "OBJECT_ID": "1961-015CJ",
    "OBJECT_NAME": "THOR ABLESTAR DEB",
    "NORAD_CAT_ID": "262",
    "OBJECT_TYPE": "DEBRIS",
    "PERIOD": "99.947",
    "INCLINATION": "66.4661",
    "APOGEE": "808.619",
    "PERIGEE": "703.412",
    "ECCENTRICITY": "0.0073735",
    "MEAN_MOTION": "14.40752196",
    "TLE_LINE1": "1   262U 61015CJ  16238.92242370 +.00000121 +00000-0 +64591-4 0  9995",
    "TLE_LINE2": "2   262 066.4661 047.0457 0073735 039.0922 321.5474 14.40752196840780"
  },
  {
    "OBJECT_ID": "1961-015CK",
    "OBJECT_NAME": "THOR ABLESTAR DEB",
    "NORAD_CAT_ID": "263",
    "OBJECT_TYPE": "DEBRIS",
    "PERIOD": "100.028",
    "INCLINATION": "66.5323",
    "APOGEE": "843.156",
    "PERIGEE": "676.581",
    "ECCENTRICITY": "0.0116682",
    "MEAN_MOTION": "14.39585803",
    "TLE_LINE1": "1 00263U 61015CK  16238.82065808  .00000155  00000-0  74195-4 0  9992",
    "TLE_LINE2": "2 00263  66.5323  23.4918 0116682 263.9516 208.9083 14.39585803867491"
  },
  {
    "OBJECT_ID": "1961-015CL",
    "OBJECT_NAME": "THOR ABLESTAR DEB",
    "NORAD_CAT_ID": "264",
    "OBJECT_TYPE": "DEBRIS",
    "PERIOD": "100.969",
    "INCLINATION": "66.5291",
    "APOGEE": "826.365",
    "PERIGEE": "782.753",
    "ECCENTRICITY": "0.0030359",
    "MEAN_MOTION": "14.26171315",
    "TLE_LINE1": "1   264U 61015CL  16238.80885452 +.00000289 +00000-0 +15568-3 0  9992",
    "TLE_LINE2": "2   264 066.5291 302.4114 0030359 313.5894 046.2681 14.26171315821594"
  },
  {
    "OBJECT_ID": "1961-015CN",
    "OBJECT_NAME": "THOR ABLESTAR DEB",
    "NORAD_CAT_ID": "268",
    "OBJECT_TYPE": "DEBRIS",
    "PERIOD": "115.191",
    "INCLINATION": "67.9375",
    "APOGEE": "1977.084",
    "PERIGEE": "951.129",
    "ECCENTRICITY": "0.0654121",
    "MEAN_MOTION": "12.50093212",
    "TLE_LINE1": "1 00268U 61015CN  16238.54052322  .00000351  00000-0  11984-2 0  9996",
    "TLE_LINE2": "2 00268  67.9375 290.6227 0654121 210.2119 300.0894 12.50093212505692"
  },
  {
    "OBJECT_ID": "1962-010A",
    "OBJECT_NAME": "MIDAS 5 (STRONGBACK)",
    "NORAD_CAT_ID": "271",
    "OBJECT_TYPE": "PAYLOAD",
    "PERIOD": "152.978",
    "INCLINATION": "86.6576",
    "APOGEE": "3407.801",
    "PERIGEE": "2786.018",
    "ECCENTRICITY": "0.0328116",
    "MEAN_MOTION": "9.41306062",
    "TLE_LINE1": "1   271U 62010A   16238.83357058 +.00000010 +00000-0 +91197-3 0  9999",
    "TLE_LINE2": "2   271 086.6576 117.0043 0328116 108.6485 255.0335 09.41306062868678"
  },
  {
    "OBJECT_ID": "1962-010C",
    "OBJECT_NAME": "MIDAS 5 DEB",
    "NORAD_CAT_ID": "273",
    "OBJECT_TYPE": "DEBRIS",
    "PERIOD": "152.574",
    "INCLINATION": "86.6496",
    "APOGEE": "3392.500",
    "PERIGEE": "2767.876",
    "ECCENTRICITY": "0.0330198",
    "MEAN_MOTION": "9.43803347",
    "TLE_LINE1": "1 00273U 62010C   16239.05882522 -.00000003  00000-0 -12736-2 0  9990",
    "TLE_LINE2": "2 00273  86.6496 101.1026 0330198 325.2460  32.7271  9.43803347873663"
  },
  {
    "OBJECT_ID": "1962-010D",
    "OBJECT_NAME": "MIDAS 5 DEB",
    "NORAD_CAT_ID": "274",
    "OBJECT_TYPE": "DEBRIS",
    "PERIOD": "153.302",
    "INCLINATION": "86.6661",
    "APOGEE": "3425.185",
    "PERIGEE": "2795.330",
    "ECCENTRICITY": "0.0331908",
    "MEAN_MOTION": "9.39320432",
    "TLE_LINE1": "1 00274U 62010D   16239.12058379 -.00000038  00000-0 -84882-2 0  9993",
    "TLE_LINE2": "2 00274  86.6661 132.0389 0331908 228.2006 129.0099  9.39320432864832"
  },
  {
    "OBJECT_ID": "1961-015CQ",
    "OBJECT_NAME": "THOR ABLESTAR DEB",
    "NORAD_CAT_ID": "299",
    "OBJECT_TYPE": "DEBRIS",
    "PERIOD": "105.289",
    "INCLINATION": "67.1683",
    "APOGEE": "1146.977",
    "PERIGEE": "869.023",
    "ECCENTRICITY": "0.0188159",
    "MEAN_MOTION": "13.67656",
    "TLE_LINE1": "1   299U 61015CQ  16238.92672162 -.00000036 +00000-0 +34693-4 0  9997",
    "TLE_LINE2": "2   299 067.1683 049.9198 0188159 071.9808 290.1665 13.67656000739055"
  },
  {
    "OBJECT_ID": "1962-025A",
    "OBJECT_NAME": "TIROS 5",
    "NORAD_CAT_ID": "309",
    "OBJECT_TYPE": "PAYLOAD",
    "PERIOD": "98.861",
    "INCLINATION": "58.0923",
    "APOGEE": "843.870",
    "PERIGEE": "564.543",
    "ECCENTRICITY": "0.01972",
    "MEAN_MOTION": "14.56590266",
    "TLE_LINE1": "1   309U 62025A   16238.87052360 -.00000141 +00000-0 +12257-4 0  9996",
    "TLE_LINE2": "2   309 058.0923 005.6864 0197200 030.8452 330.3987 14.56590266859550"
  },
  {
    "OBJECT_ID": "1962-025C",
    "OBJECT_NAME": "DELTA 1 DEB (YO)",
    "NORAD_CAT_ID": "312",
    "OBJECT_TYPE": "DEBRIS",
    "PERIOD": "99.039",
    "INCLINATION": "58.2486",
    "APOGEE": "859.576",
    "PERIGEE": "565.927",
    "ECCENTRICITY": "0.0207061",
    "MEAN_MOTION": "14.53958241",
    "TLE_LINE1": "1   312U 62025C   16238.86588790 -.00000021 +00000-0 +32952-4 0  9991",
    "TLE_LINE2": "2   312 058.2486 079.9546 0207061 232.4650 125.7405 14.53958241837216"
  },
  {
    "OBJECT_ID": "1961-015CU",
    "OBJECT_NAME": "THOR ABLESTAR DEB",
    "NORAD_CAT_ID": "318",
    "OBJECT_TYPE": "DEBRIS",
    "PERIOD": "97.052",
    "INCLINATION": "66.536",
    "APOGEE": "672.272",
    "PERIGEE": "562.817",
    "ECCENTRICITY": "0.007823",
    "MEAN_MOTION": "14.83740149",
    "TLE_LINE1": "1   318U 61015CU  16238.92773674 +.00000557 +00000-0 +79097-4 0  9993",
    "TLE_LINE2": "2   318 066.5360 144.6965 0078230 214.0544 145.5548 14.83740149879596"
  },
  {
    "OBJECT_ID": "1961-015CW",
    "OBJECT_NAME": "THOR ABLESTAR DEB",
    "NORAD_CAT_ID": "320",
    "OBJECT_TYPE": "DEBRIS",
    "PERIOD": "100.913",
    "INCLINATION": "66.9068",
    "APOGEE": "905.789",
    "PERIGEE": "698.050",
    "ECCENTRICITY": "0.0144664",
    "MEAN_MOTION": "14.26957821",
    "TLE_LINE1": "1   320U 61015CW  16238.82095544 +.00000025 +00000-0 +41265-4 0  9994",
    "TLE_LINE2": "2   320 066.9068 305.5400 0144664 243.4090 115.2124 14.26957821856994"
  },
  {
    "OBJECT_ID": "1961-015CZ",
    "OBJECT_NAME": "THOR ABLESTAR DEB",
    "NORAD_CAT_ID": "323",
    "OBJECT_TYPE": "DEBRIS",
    "PERIOD": "101.925",
    "INCLINATION": "66.8423",
    "APOGEE": "907.984",
    "PERIGEE": "791.687",
    "ECCENTRICITY": "0.0080449",
    "MEAN_MOTION": "14.12791721",
    "TLE_LINE1": "1   323U 61015CZ  16238.95319577 -.00000190 +00000-0 -56780-4 0  9999",
    "TLE_LINE2": "2   323 066.8423 173.0450 0080449 197.0270 162.8119 14.12791721822083"
  },
  {
    "OBJECT_ID": "1961-015DA",
    "OBJECT_NAME": "THOR ABLESTAR DEB",
    "NORAD_CAT_ID": "324",
    "OBJECT_TYPE": "DEBRIS",
    "PERIOD": "102.139",
    "INCLINATION": "66.8668",
    "APOGEE": "908.208",
    "PERIGEE": "811.663",
    "ECCENTRICITY": "0.0066692",
    "MEAN_MOTION": "14.09835739",
    "TLE_LINE1": "1   324U 61015DA  16238.84992807 +.00000095 +00000-0 +97104-4 0  9998",
    "TLE_LINE2": "2   324 066.8668 050.6053 0066692 147.1255 213.4010 14.09835739817707"
  },
  {
    "OBJECT_ID": "1961-015DB",
    "OBJECT_NAME": "THOR ABLESTAR DEB",
    "NORAD_CAT_ID": "325",
    "OBJECT_TYPE": "DEBRIS",
    "PERIOD": "101.578",
    "INCLINATION": "66.9148",
    "APOGEE": "881.283",
    "PERIGEE": "785.499",
    "ECCENTRICITY": "0.006641",
    "MEAN_MOTION": "14.17626863",
    "TLE_LINE1": "1 00325U 61015DB  16239.41885155  .00000318  00000-0  19201-3 0  9999",
    "TLE_LINE2": "2 00325  66.9148 227.9048 0066410 220.8771 138.7332 14.17626863825301"
  }
]
